[{"OBJECT_NAME":"LEMUR-2-JK0903EM1407","OBJECT_ID":"2023-174CJ","EPOCH":"2026-03-02T17:58:36.838272","MEAN_MOTION":15.46239403,"ECCENTRICITY":0.0006294,"INCLINATION":97.3933,"RA_OF_ASC_NODE":149.6877,"ARG_OF_PERICENTER":138.2839,"MEAN_ANOMALY":221.8892,"EPHEMERIS_TYPE":0,"CLASSIFICATION_TYPE":"U","NORAD_CAT_ID":58336,"ELEMENT_SET_NO":999,"REV_AT_EPOCH":12925,"BSTAR":0.00057123,"MEAN_MOTION_DOT":0.00028084,"MEAN_MOTION_DDOT":0},{"OBJECT_NAME":"LEMUR-2-MJR092620","OBJECT_ID":"2023-174CN","EPOCH":"2026-03-02T18:12:53.654112","MEAN_MOTION":15.41907155,"ECCENTRICITY":0.0008011,"INCLINATION":97.3999,"RA_OF_ASC_NODE":150.0915,"ARG_OF_PERICENTER":136.2626,"MEAN_ANOMALY":223.9257,"EPHEMERIS_TYPE":0,"CLASSIFICATION_TYPE":"U","NORAD_CAT_ID":58340,"ELEMENT_SET_NO":999,"REV_AT_EPOCH":12923,"BSTAR":0.00033962,"MEAN_MOTION_DOT":0.00014369,"MEAN_MOTION_DDOT":0},{"OBJECT_NAME":"LEMUR-2-NIMBUS2000","OBJECT_ID":"2024-022A","EPOCH":"2026-03-02T15:48:10.449792","MEAN_MOTION":15.36451701,"ECCENTRICITY":0.0010359,"INCLINATION":97.4233,"RA_OF_ASC_NODE":270.5078,"ARG_OF_PERICENTER":136.1188,"MEAN_ANOMALY":224.088,"EPHEMERIS_TYPE":0,"CLASSIFICATION_TYPE":"U","NORAD_CAT_ID":58899,"ELEMENT_SET_NO":999,"REV_AT_EPOCH":11589,"BSTAR":0.00056659,"MEAN_MOTION_DOT":0.00020131,"MEAN_MOTION_DDOT":0},{"OBJECT_NAME":"LEMUR-2-VALHALLA","OBJECT_ID":"2024-022B","EPOCH":"2026-03-02T13:42:47.338272","MEAN_MOTION":15.36212032,"ECCENTRICITY":0.0010961,"INCLINATION":97.4232,"RA_OF_ASC_NODE":270.4562,"ARG_OF_PERICENTER":132.3573,"MEAN_ANOMALY":227.8601,"EPHEMERIS_TYPE":0,"CLASSIFICATION_TYPE":"U","NORAD_CAT_ID":58900,"ELEMENT_SET_NO":999,"REV_AT_EPOCH":11588,"BSTAR":0.00055436,"MEAN_MOTION_DOT":0.00019546,"MEAN_MOTION_DDOT":0},{"OBJECT_NAME":"LEMUR-2-OBA-NI-JESU","OBJECT_ID":"2024-022D","EPOCH":"2026-03-02T13:37:58.124640","MEAN_MOTION":15.63749344,"ECCENTRICITY":0.0005262,"INCLINATION":97.4071,"RA_OF_ASC_NODE":279.2684,"ARG_OF_PERICENTER":91.4411,"MEAN_ANOMALY":268.745,"EPHEMERIS_TYPE":0,"CLASSIFICATION_TYPE":"U","NORAD_CAT_ID":58902,"ELEMENT_SET_NO":999,"REV_AT_EPOCH":11648,"BSTAR":0.0010291,"MEAN_MOTION_DOT":0.00096961,"MEAN_MOTION_DDOT":0},{"OBJECT_NAME":"LEMUR-2-CAEL","OBJECT_ID":"2024-022E","EPOCH":"2026-03-02T15:56:47.732640","MEAN_MOTION":15.37349503,"ECCENTRICITY":0.0009399,"INCLINATION":97.4218,"RA_OF_ASC_NODE":271.3129,"ARG_OF_PERICENTER":116.3247,"MEAN_ANOMALY":243.8964,"EPHEMERIS_TYPE":0,"CLASSIFICATION_TYPE":"U","NORAD_CAT_ID":58903,"ELEMENT_SET_NO":999,"REV_AT_EPOCH":11595,"BSTAR":0.0005508,"MEAN_MOTION_DOT":0.00020136,"MEAN_MOTION_DDOT":0},{"OBJECT_NAME":"LEMUR-2-JOHNNYTRUONG","OBJECT_ID":"2024-043BA","EPOCH":"2026-03-02T15:04:34.247424","MEAN_MOTION":15.52477514,"ECCENTRICITY":0.0005338,"INCLINATION":97.5243,"RA_OF_ASC_NODE":207.453,"ARG_OF_PERICENTER":208.5675,"MEAN_ANOMALY":151.5285,"EPHEMERIS_TYPE":0,"CLASSIFICATION_TYPE":"U","NORAD_CAT_ID":59146,"ELEMENT_SET_NO":999,"REV_AT_EPOCH":11146,"BSTAR":0.00068535,"MEAN_MOTION_DOT":0.00042022,"MEAN_MOTION_DDOT":0},{"OBJECT_NAME":"LEMUR-2-TOMATOKECHUP","OBJECT_ID":"2024-149D","EPOCH":"2026-03-02T18:37:42.423744","MEAN_MOTION":15.33536821,"ECCENTRICITY":8.68e-5,"INCLINATION":97.3861,"RA_OF_ASC_NODE":143.7212,"ARG_OF_PERICENTER":207.4885,"MEAN_ANOMALY":152.6312,"EPHEMERIS_TYPE":0,"CLASSIFICATION_TYPE":"U","NORAD_CAT_ID":60471,"ELEMENT_SET_NO":999,"REV_AT_EPOCH":8584,"BSTAR":0.00044589,"MEAN_MOTION_DOT":0.00014388,"MEAN_MOTION_DDOT":0},{"OBJECT_NAME":"LEMUR-2-STELLA","OBJECT_ID":"2024-149BT","EPOCH":"2026-03-02T18:22:24.337344","MEAN_MOTION":15.09232918,"ECCENTRICITY":0.0001521,"INCLINATION":97.6791,"RA_OF_ASC_NODE":143.9432,"ARG_OF_PERICENTER":96.566,"MEAN_ANOMALY":263.5742,"EPHEMERIS_TYPE":0,"CLASSIFICATION_TYPE":"U","NORAD_CAT_ID":60533,"ELEMENT_SET_NO":999,"REV_AT_EPOCH":8443,"BSTAR":0.00096168,"MEAN_MOTION_DOT":0.00015258,"MEAN_MOTION_DDOT":0},{"OBJECT_NAME":"LEMUR-2-MARHISYAM","OBJECT_ID":"2024-149BW","EPOCH":"2026-03-02T18:39:17.766144","MEAN_MOTION":15.08784487,"ECCENTRICITY":0.000324,"INCLINATION":97.6931,"RA_OF_ASC_NODE":144.2874,"ARG_OF_PERICENTER":124.0615,"MEAN_ANOMALY":236.0921,"EPHEMERIS_TYPE":0,"CLASSIFICATION_TYPE":"U","NORAD_CAT_ID":60536,"ELEMENT_SET_NO":999,"REV_AT_EPOCH":8442,"BSTAR":0.0009174,"MEAN_MOTION_DOT":0.00014374,"MEAN_MOTION_DDOT":0},{"OBJECT_NAME":"LEMUR-2-AHMED-ASRAR","OBJECT_ID":"2024-149DN","EPOCH":"2026-03-02T18:37:14.476800","MEAN_MOTION":15.10151355,"ECCENTRICITY":0.0002195,"INCLINATION":97.7047,"RA_OF_ASC_NODE":145.9871,"ARG_OF_PERICENTER":40.1325,"MEAN_ANOMALY":320.0065,"EPHEMERIS_TYPE":0,"CLASSIFICATION_TYPE":"U","NORAD_CAT_ID":60576,"ELEMENT_SET_NO":999,"REV_AT_EPOCH":8449,"BSTAR":0.00089019,"MEAN_MOTION_DOT":0.00014478,"MEAN_MOTION_DDOT":0},{"OBJECT_NAME":"LEMUR-2-LLOYD","OBJECT_ID":"2024-149DP","EPOCH":"2026-03-02T18:05:51.111456","MEAN_MOTION":15.06971902,"ECCENTRICITY":0.0005131,"INCLINATION":97.6811,"RA_OF_ASC_NODE":142.9868,"ARG_OF_PERICENTER":142.1572,"MEAN_ANOMALY":218.0017,"EPHEMERIS_TYPE":0,"CLASSIFICATION_TYPE":"U","NORAD_CAT_ID":60577,"ELEMENT_SET_NO":999,"REV_AT_EPOCH":8435,"BSTAR":0.00082838,"MEAN_MOTION_DOT":0.00012347,"MEAN_MOTION_DDOT":0},{"OBJECT_NAME":"LEMUR-2-SQUIRRELCOMM","OBJECT_ID":"2024-149DQ","EPOCH":"2026-03-02T18:47:46.472928","MEAN_MOTION":15.05742007,"ECCENTRICITY":0.0006326,"INCLINATION":97.6762,"RA_OF_ASC_NODE":143.12,"ARG_OF_PERICENTER":62.0456,"MEAN_ANOMALY":298.141,"EPHEMERIS_TYPE":0,"CLASSIFICATION_TYPE":"U","NORAD_CAT_ID":60578,"ELEMENT_SET_NO":999,"REV_AT_EPOCH":8438,"BSTAR":0.00062882,"MEAN_MOTION_DOT":9.049e-5,"MEAN_MOTION_DDOT":0},{"OBJECT_NAME":"LEMUR-2-SIERRINI","OBJECT_ID":"2024-149DR","EPOCH":"2026-03-02T18:40:14.939616","MEAN_MOTION":15.08445525,"ECCENTRICITY":0.0006095,"INCLINATION":97.6891,"RA_OF_ASC_NODE":144.0826,"ARG_OF_PERICENTER":171.1107,"MEAN_ANOMALY":189.023,"EPHEMERIS_TYPE":0,"CLASSIFICATION_TYPE":"U","NORAD_CAT_ID":60579,"ELEMENT_SET_NO":999,"REV_AT_EPOCH":8440,"BSTAR":0.00094733,"MEAN_MOTION_DOT":0.00014713,"MEAN_MOTION_DDOT":0},{"OBJECT_NAME":"LEMUR-2-WILSON","OBJECT_ID":"2025-009CP","EPOCH":"2026-03-02T19:15:41.902848","MEAN_MOTION":14.94628508,"ECCENTRICITY":0.0003958,"INCLINATION":97.7087,"RA_OF_ASC_NODE":142.1529,"ARG_OF_PERICENTER":51.3376,"MEAN_ANOMALY":308.8198,"EPHEMERIS_TYPE":0,"CLASSIFICATION_TYPE":"U","NORAD_CAT_ID":62694,"ELEMENT_SET_NO":999,"REV_AT_EPOCH":6146,"BSTAR":0.0002771,"MEAN_MOTION_DOT":2.945e-5,"MEAN_MOTION_DDOT":0},{"OBJECT_NAME":"LEMUR-2-STAR-FOX","OBJECT_ID":"2025-009CR","EPOCH":"2026-03-02T17:53:16.586304","MEAN_MOTION":15.00703535,"ECCENTRICITY":0.0002128,"INCLINATION":97.7066,"RA_OF_ASC_NODE":144.2474,"ARG_OF_PERICENTER":166.0794,"MEAN_ANOMALY":194.0489,"EPHEMERIS_TYPE":0,"CLASSIFICATION_TYPE":"U","NORAD_CAT_ID":62696,"ELEMENT_SET_NO":999,"REV_AT_EPOCH":6158,"BSTAR":0.00093679,"MEAN_MOTION_DOT":0.00011819,"MEAN_MOTION_DDOT":0}]
